NORAD_CAT_ID,OBJECT_NAME,OBJECT_TYPE,EPOCH,MEAN_MOTION,ECCENTRICITY,INCLINATION,RA_OF_ASC_NODE,ARG_OF_PERICENTER,MEAN_ANOMALY,BSTAR,MEAN_MOTION_DOT,MEAN_MOTION_DDOT,TLE_LINE0,TLE_LINE1,TLE_LINE2,SEMIMAJOR_AXIS,PERIOD,APOGEE,PERIGEE,DECAYED
55659.0,STARLINK-5477,PAYLOAD,2024-05-26 14:16:32,14.98334282,0.00029,70.0014,8.7576,264.0822,96.0007,0.00017078,1.946e-05,0.0,0 STARLINK-5477,1 55659U 23021AH  24147.59481694  .00001946  00000-0  17078-3 0  9998,2 55659  70.0014   8.7576 0002900 264.0822  96.0007 14.98334282 71602,6950.18,96.107,574.06,570.029,0.0
55659.0,STARLINK-5477,PAYLOAD,2024-05-26 20:41:03,14.98353436,0.0003256,70.0009,8.0857,265.5245,94.5542,0.00053815,6.338e-05,0.0,0 STARLINK-5477,1 55659U 23021AH  24147.86184699  .00006338  00000-0  53815-3 0  9992,2 55659  70.0009   8.0857 0003256 265.5245  94.5542 14.98353436 71341,6950.12,96.105,574.248,569.722,0.0
55659.0,STARLINK-5477,PAYLOAD,2024-05-26 22:17:12,14.98335548,0.0002923,70.0015,7.9159,265.5452,94.5373,0.00016939,1.929e-05,0.0,0 STARLINK-5477,1 55659U 23021AH  24147.92861579  .00001929  00000-0  16939-3 0  9995,2 55659  70.0015   7.9159 0002923 265.5452  94.5373 14.98335548 71651,6950.176,96.107,574.072,570.009,0.0
55659.0,STARLINK-5477,PAYLOAD,2024-05-26 23:53:20,14.9833734,0.0003023,69.9998,7.7492,264.7673,95.3141,0.00019256,2.206e-05,0.0,0 STARLINK-5477,1 55659U 23021AH  24147.99537406  .00002206  00000-0  19256-3 0  9995,2 55659  69.9998   7.7492 0003023 264.7673  95.3141 14.98337340 71366,6950.17,96.107,574.136,569.934,0.0
55659.0,STARLINK-5477,PAYLOAD,2024-05-27 14:18:32,14.98361057,0.0002526,70.0009,6.234,211.899,148.2016,-0.00049113,-5.953e-05,0.0,0 STARLINK-5477,1 55659U 23021AH  24148.59621265 -.00005953  00000-0 -49113-3 0  9998,2 55659  70.0009   6.2340 0002526 211.8990 148.2016 14.98361057 71754,6950.097,96.105,573.717,570.206,0.0
55659.0,STARLINK-5477,PAYLOAD,2024-05-27 20:43:05,14.98329412,0.0002875,70.0004,5.5595,261.5679,98.5154,0.00010713,1.185e-05,0.0,0 STARLINK-5477,1 55659U 23021AH  24148.86325893  .00001185  00000-0  10713-3 0  9991,2 55659  70.0004   5.5595 0002875 261.5679  98.5154 14.98329412 71496,6950.195,96.107,574.058,570.062,0.0
55659.0,STARLINK-5477,PAYLOAD,2024-05-27 22:19:13,14.98328296,0.0002904,70.0004,5.3911,262.3491,97.7339,8.7059e-05,9.46e-06,0.0,0 STARLINK-5477,1 55659U 23021AH  24148.93002003  .00000946  00000-0  87059-4 0  9996,2 55659  70.0004   5.3911 0002904 262.3491  97.7339 14.98328296 71800,6950.198,96.107,574.081,570.045,0.0
55659.0,STARLINK-5477,PAYLOAD,2024-05-28 07:56:02,14.98330051,0.000297,70.0002,4.3809,265.9534,94.1286,7.5242e-05,8.05e-06,0.0,0 STARLINK-5477,1 55659U 23021AH  24149.33057917  .00000805  00000-0  75242-4 0  9990,2 55659  70.0002   4.3809 0002970 265.9534  94.1286 14.98330051 71863,6950.193,96.107,574.122,569.994,0.0
55659.0,STARLINK-5477,PAYLOAD,2024-05-28 20:45:06,14.98334744,0.0003071,70.0001,3.0343,268.3853,91.6955,3.3916e-05,3.12e-06,0.0,0 STARLINK-5477,1 55659U 23021AH  24149.86465475  .00000312  00000-0  33916-4 0  9995,2 55659  70.0001   3.0343 0003071 268.3853  91.6955 14.98334744 71649,6950.178,96.107,574.178,569.909,0.0
55659.0,STARLINK-5477,PAYLOAD,2024-05-28 22:21:14,14.98334695,0.0003074,70.0,2.8659,268.4353,91.6454,3.0452e-05,2.7e-06,0.0,0 STARLINK-5477,1 55659U 23021AH  24149.93141456  .00000270  00000-0  30452-4 0  9998,2 55659  70.0000   2.8659 0003074 268.4353  91.6454 14.98334695 71957,6950.178,96.107,574.18,569.907,0.0
55659.0,STARLINK-5477,PAYLOAD,2024-05-29 14:22:34,14.98331389,0.0003131,70.0,1.1825,270.0395,90.0405,8.6397e-05,9.38e-06,0.0,0 STARLINK-5477,1 55659U 23021AH  24150.59901473  .00000938  00000-0  86397-4 0  9995,2 55659  70.0000   1.1825 0003131 270.0395  90.0405 14.98331389 72051,6950.189,96.107,574.23,569.877,0.0
55659.0,STARLINK-5477,PAYLOAD,2024-05-29 20:47:07,14.98332287,0.0003143,69.9999,0.5093,269.6892,90.3907,9.1106e-05,9.94e-06,0.0,0 STARLINK-5477,1 55659U 23021AH  24150.86605449  .00000994  00000-0  91106-4 0  9995,2 55659  69.9999   0.5093 0003143 269.6892  90.3907 14.98332287 71792,6950.186,96.107,574.235,569.866,0.0
55659.0,STARLINK-5477,PAYLOAD,2024-05-29 22:23:15,14.98333433,0.0003132,70.0,0.341,269.6379,90.4421,0.00010288,1.135e-05,0.0,0 STARLINK-5477,1 55659U 23021AH  24150.93281339  .00001135  00000-0  10288-3 0  9990,2 55659  70.0000   0.3410 0003132 269.6379  90.4421 14.98333433 72109,6950.182,96.107,574.224,569.87,0.0
55659.0,STARLINK-5477,PAYLOAD,2024-05-30 14:24:35,14.98334413,0.0003025,70.0002,358.6584,268.1811,91.9001,8.6853e-05,9.44e-06,0.0,0 STARLINK-5477,1 55659U 23021AH  24151.60041284  .00000944  00000-0  86853-4 0  9997,2 55659  70.0002 358.6584 0003025 268.1811  91.9001 14.98334413 72208,6950.179,96.107,574.147,569.942,0.0
55659.0,STARLINK-5477,PAYLOAD,2024-05-30 17:36:51,14.98334393,0.0003047,70.0002,358.3217,267.8716,92.2094,7.9643e-05,8.58e-06,0.0,0 STARLINK-5477,1 55659U 23021AH  24151.73393264  .00000858  00000-0  79643-4 0  9992,2 55659  70.0002 358.3217 0003047 267.8716  92.2094 14.98334393 72227,6950.179,96.107,574.162,569.927,0.0
55659.0,STARLINK-5477,PAYLOAD,2024-05-31 00:01:23,14.98337262,0.0003005,70.0002,357.6484,267.1858,92.8958,0.00010941,1.213e-05,0.0,0 STARLINK-5477,1 55659U 23021AH  24152.00096934  .00001213  00000-0  10941-3 0  9998,2 55659  70.0002 357.6484 0003005 267.1858  92.8958 14.98337262 71962,6950.17,96.107,574.124,569.947,0.0
55659.0,STARLINK-5477,PAYLOAD,2024-05-31 14:26:36,14.98335503,0.0002932,70.0002,356.1331,267.4817,92.6007,0.00010569,1.168e-05,0.0,0 STARLINK-5477,1 55659U 23021AH  24152.60180921  .00001168  00000-0  10569-3 0  9999,2 55659  70.0002 356.1331 0002932 267.4817  92.6007 14.98335503 72356,6950.176,96.107,574.079,570.003,0.0
55659.0,STARLINK-5477,PAYLOAD,2024-05-31 22:27:16,14.98335227,0.0002979,70.0001,355.2908,269.6535,90.4282,9.2016e-05,1.005e-05,0.0,0 STARLINK-5477,1 55659U 23021AH  24152.93560844  .00001005  00000-0  92016-4 0  9999,2 55659  70.0001 355.2908 0002979 269.6535  90.4282 14.98335227 72407,6950.177,96.107,574.112,569.971,0.0
55659.0,STARLINK-5477,PAYLOAD,2024-06-01 00:03:24,14.98335742,0.0002978,70.0001,355.1225,269.4739,90.6079,9.5871e-05,1.051e-05,0.0,0 STARLINK-5477,1 55659U 23021AH  24153.00236784  .00001051  00000-0  95871-4 0  9994,2 55659  70.0001 355.1225 0002978 269.4739  90.6079 14.98335742 72117,6950.175,96.107,574.11,569.97,0.0
55659.0,STARLINK-5477,PAYLOAD,2024-06-01 06:27:57,14.98331271,0.0002959,70.0001,354.4488,271.2278,88.8542,3.0103e-05,2.66e-06,0.0,0 STARLINK-5477,1 55659U 23021AH  24153.26941170  .00000266  00000-0  30103-4 0  9998,2 55659  70.0001 354.4488 0002959 271.2278  88.8542 14.98331271 72159,6950.189,96.107,574.111,569.997,0.0
55659.0,STARLINK-5477,PAYLOAD,2024-06-01 14:28:37,14.9832965,0.0002937,70.0001,353.6073,270.5669,89.5154,1.6206e-06,-7.4e-07,0.0,0 STARLINK-5477,1 55659U 23021AH  24153.60321343 -.00000074  00000-0  16206-5 0  9997,2 55659  70.0001 353.6073 0002937 270.5669  89.5154 14.98329650 72506,6950.194,96.107,574.1,570.018,0.0
55659.0,STARLINK-5477,PAYLOAD,2024-06-01 22:29:18,14.98320247,0.0002985,70.0001,352.7657,266.745,93.3368,0.0001604,1.821e-05,0.0,0 STARLINK-5477,1 55659U 23021AH  24153.93701568  .00001821  00000-0  16040-3 0  9998,2 55659  70.0001 352.7657 0002985 266.7450  93.3368 14.98320247 72257,6950.223,96.108,574.163,570.013,0.0
55659.0,STARLINK-5477,PAYLOAD,2024-06-02 06:29:58,14.98330407,0.0002964,70.0002,351.924,269.7378,90.3441,1.8275e-05,1.25e-06,0.0,0 STARLINK-5477,1 55659U 23021AH  24154.27081219  .00000125  00000-0  18275-4 0  9999,2 55659  70.0002 351.9240 0002964 269.7378  90.3441 14.98330407 72300,6950.192,96.107,574.117,569.997,0.0
55659.0,STARLINK-5477,PAYLOAD,2024-06-02 22:31:18,14.98331154,0.0002968,70.0001,350.2405,269.4634,90.6185,1.7456e-05,1.15e-06,0.0,0 STARLINK-5477,1 55659U 23021AH  24154.93841186  .00000115  00000-0  17456-4 0  9998,2 55659  70.0001 350.2405 0002968 269.4634  90.6185 14.98331154 72702,6950.189,96.107,574.117,569.992,0.0
55659.0,STARLINK-5477,PAYLOAD,2024-06-03 19:21:03,14.98330185,0.0003115,70.0001,348.0515,270.2032,89.877,0.00015013,1.699e-05,0.0,0 STARLINK-5477,1 55659U 23021AH  24155.80628992  .00001699  00000-0  15013-3 0  9997,2 55659  70.0001 348.0515 0003115 270.2032  89.8770 14.98330185 72530,6950.192,96.107,574.222,569.892,0.0
55659.0,STARLINK-5477,PAYLOAD,2024-06-04 12:58:32,14.98333525,0.0003068,70.0035,346.1998,270.5137,89.5671,9.5992e-05,1.053e-05,0.0,0 STARLINK-5477,1 55659U 23021AH  24156.54064907  .00001053  00000-0  95992-4 0  9998,2 55659  70.0035 346.1998 0003068 270.5137  89.5671 14.98333525 72940,6950.182,96.107,574.179,569.915,0.0
55659.0,STARLINK-5477,PAYLOAD,2024-06-04 19:23:04,14.9833646,0.0003094,70.0052,345.5268,271.1645,88.916,9.1002e-05,9.93e-06,0.0,0 STARLINK-5477,1 55659U 23021AH  24156.80768710  .00000993  00000-0  91002-4 0  9990,2 55659  70.0052 345.5268 0003094 271.1645  88.9160 14.98336460 72680,6950.173,96.107,574.188,569.888,0.0
55659.0,STARLINK-5477,PAYLOAD,2024-06-06 05:01:53,14.98337715,0.0003099,69.9993,341.9915,269.6265,90.4538,-4.1459e-05,-5.88e-06,0.0,0 STARLINK-5477,1 55659U 23021AH  24158.20964589 -.00000588  00000-0 -41459-4 0  9991,2 55659  69.9993 341.9915 0003099 269.6265  90.4538 14.98337715 72899,6950.169,96.107,574.188,569.88,0.0
55659.0,STARLINK-5477,PAYLOAD,2024-06-07 17:52:59,14.98331892,0.000305,69.9999,338.12,269.9355,90.1455,3.3968e-05,3.12e-06,0.0,0 STARLINK-5477,1 55659U 23021AH  24159.74512835  .00000312  00000-0  33968-4 0  9993,2 55659  69.9999 338.1200 0003050 269.9355  90.1455 14.98331892 73122,6950.187,96.107,574.172,569.932,0.0
55659.0,STARLINK-5477,PAYLOAD,2024-06-08 11:30:27,14.98331574,0.0002908,70.0001,336.2682,270.3211,89.7615,1.9612e-05,1.41e-06,0.0,0 STARLINK-5477,1 55659U 23021AH  24160.47948801  .00000141  00000-0  19612-4 0  9991,2 55659  70.0001 336.2682 0002908 270.3211  89.7615 14.98331574 73534,6950.188,96.107,574.074,570.032,0.0
